[{"OBJECT_NAME":"COSMOS 2251 DEB","OBJECT_ID":"1993-036BAL","EPOCH":"2026-03-04T17:38:40.616448","MEAN_MOTION":14.72491053,"ECCENTRICITY":0.00206088,"INCLINATION":73.939,"RA_OF_ASC_NODE":233.6946,"ARG_OF_PERICENTER":80.4154,"MEAN_ANOMALY":279.9345,"EPHEMERIS_TYPE":0,"CLASSIFICATION_TYPE":"U","NORAD_CAT_ID":36437,"ELEMENT_SET_NO":999,"REV_AT_EPOCH":67257,"BSTAR":0.0024018653,"MEAN_MOTION_DOT":0.00015302,"MEAN_MOTION_DDOT":0},{"OBJECT_NAME":"COSMOS 2251 DEB","OBJECT_ID":"1993-036BAN","EPOCH":"2026-03-10T04:27:44.470368","MEAN_MOTION":13.48116918,"ECCENTRICITY":0.04251662,"INCLINATION":73.9666,"RA_OF_ASC_NODE":257.1058,"ARG_OF_PERICENTER":212.0904,"MEAN_ANOMALY":145.3671,"EPHEMERIS_TYPE":0,"CLASSIFICATION_TYPE":"U","NORAD_CAT_ID":36439,"ELEMENT_SET_NO":999,"REV_AT_EPOCH":59791,"BSTAR":0.0012558158,"MEAN_MOTION_DOT":1.33e-5,"MEAN_MOTION_DDOT":0},{"OBJECT_NAME":"COSMOS 2251 DEB","OBJECT_ID":"1993-036BAQ","EPOCH":"2026-03-14T23:00:06.935040","MEAN_MOTION":15.08741728,"ECCENTRICITY":0.01074214,"INCLINATION":73.8329,"RA_OF_ASC_NODE":157.6768,"ARG_OF_PERICENTER":238.4457,"MEAN_ANOMALY":120.621,"EPHEMERIS_TYPE":0,"CLASSIFICATION_TYPE":"U","NORAD_CAT_ID":36441,"ELEMENT_SET_NO":999,"REV_AT_EPOCH":88355,"BSTAR":0.00064972159,"MEAN_MOTION_DOT":0.00011646,"MEAN_MOTION_DDOT":0},{"OBJECT_NAME":"COSMOS 2251 DEB","OBJECT_ID":"1993-036BBA","EPOCH":"2026-03-11T15:05:33.725184","MEAN_MOTION":14.19125676,"ECCENTRICITY":0.01850205,"INCLINATION":73.9529,"RA_OF_ASC_NODE":175.6158,"ARG_OF_PERICENTER":339.552,"MEAN_ANOMALY":19.828,"EPHEMERIS_TYPE":0,"CLASSIFICATION_TYPE":"U","NORAD_CAT_ID":36451,"ELEMENT_SET_NO":999,"REV_AT_EPOCH":85486,"BSTAR":0.00072994144,"MEAN_MOTION_DOT":1.784e-5,"MEAN_MOTION_DDOT":0},{"OBJECT_NAME":"COSMOS 2251 DEB","OBJECT_ID":"1993-036BBC","EPOCH":"2026-03-13T04:12:02.030400","MEAN_MOTION":14.5343331,"ECCENTRICITY":0.00715579,"INCLINATION":73.9264,"RA_OF_ASC_NODE":340.5582,"ARG_OF_PERICENTER":224.1893,"MEAN_ANOMALY":287.3776,"EPHEMERIS_TYPE":0,"CLASSIFICATION_TYPE":"U","NORAD_CAT_ID":36453,"ELEMENT_SET_NO":999,"REV_AT_EPOCH":85781,"BSTAR":0.00073408157,"MEAN_MOTION_DOT":3.133e-5,"MEAN_MOTION_DDOT":0},{"OBJECT_NAME":"COSMOS 2251 DEB","OBJECT_ID":"1993-036BBJ","EPOCH":"2026-02-26T03:21:02.988288","MEAN_MOTION":14.26981616,"ECCENTRICITY":0.01151542,"INCLINATION":74.0464,"RA_OF_ASC_NODE":223.5036,"ARG_OF_PERICENTER":301.5673,"MEAN_ANOMALY":57.4272,"EPHEMERIS_TYPE":0,"CLASSIFICATION_TYPE":"U","NORAD_CAT_ID":36459,"ELEMENT_SET_NO":999,"REV_AT_EPOCH":8957,"BSTAR":0.0012579512,"MEAN_MOTION_DOT":3.257e-5,"MEAN_MOTION_DDOT":0},{"OBJECT_NAME":"COSMOS 2251 DEB","OBJECT_ID":"1993-036BBV","EPOCH":"2026-03-15T05:41:32.716608","MEAN_MOTION":15.20747405,"ECCENTRICITY":0.00264266,"INCLINATION":73.8321,"RA_OF_ASC_NODE":60.1961,"ARG_OF_PERICENTER":239.46,"MEAN_ANOMALY":120.3989,"EPHEMERIS_TYPE":0,"CLASSIFICATION_TYPE":"U","NORAD_CAT_ID":36470,"ELEMENT_SET_NO":999,"REV_AT_EPOCH":67493,"BSTAR":0.0045365595,"MEAN_MOTION_DOT":0.00102193,"MEAN_MOTION_DDOT":0},{"OBJECT_NAME":"COSMOS 2251 DEB","OBJECT_ID":"1993-036BCN","EPOCH":"2026-02-16T14:27:48.280896","MEAN_MOTION":14.30929428,"ECCENTRICITY":0.0082039,"INCLINATION":74.0163,"RA_OF_ASC_NODE":25.1656,"ARG_OF_PERICENTER":57.9736,"MEAN_ANOMALY":302.935,"EPHEMERIS_TYPE":0,"CLASSIFICATION_TYPE":"U","NORAD_CAT_ID":36528,"ELEMENT_SET_NO":999,"REV_AT_EPOCH":65369,"BSTAR":0.00053556,"MEAN_MOTION_DOT":1.435e-5,"MEAN_MOTION_DDOT":0},{"OBJECT_NAME":"COSMOS 2251 DEB","OBJECT_ID":"1993-036BCT","EPOCH":"2026-03-15T07:10:09.862464","MEAN_MOTION":14.50160963,"ECCENTRICITY":0.00471475,"INCLINATION":74.0106,"RA_OF_ASC_NODE":300.7529,"ARG_OF_PERICENTER":67.1718,"MEAN_ANOMALY":293.4411,"EPHEMERIS_TYPE":0,"CLASSIFICATION_TYPE":"U","NORAD_CAT_ID":36533,"ELEMENT_SET_NO":999,"REV_AT_EPOCH":85826,"BSTAR":0.0003335496,"MEAN_MOTION_DOT":1.286e-5,"MEAN_MOTION_DDOT":0},{"OBJECT_NAME":"COSMOS 2251 DEB","OBJECT_ID":"1993-036BCZ","EPOCH":"2026-03-15T04:43:37.518528","MEAN_MOTION":14.59983799,"ECCENTRICITY":0.0027219,"INCLINATION":74.0208,"RA_OF_ASC_NODE":238.7042,"ARG_OF_PERICENTER":355.8168,"MEAN_ANOMALY":4.2765,"EPHEMERIS_TYPE":0,"CLASSIFICATION_TYPE":"U","NORAD_CAT_ID":36539,"ELEMENT_SET_NO":999,"REV_AT_EPOCH":85296,"BSTAR":0.00068386108,"MEAN_MOTION_DOT":3.269e-5,"MEAN_MOTION_DDOT":0},{"OBJECT_NAME":"COSMOS 2251 DEB","OBJECT_ID":"1993-036BDA","EPOCH":"2026-03-13T19:13:11.734464","MEAN_MOTION":14.59647733,"ECCENTRICITY":0.00116436,"INCLINATION":74.0306,"RA_OF_ASC_NODE":6.9327,"ARG_OF_PERICENTER":56.0867,"MEAN_ANOMALY":304.1404,"EPHEMERIS_TYPE":0,"CLASSIFICATION_TYPE":"U","NORAD_CAT_ID":36540,"ELEMENT_SET_NO":999,"REV_AT_EPOCH":87338,"BSTAR":0.0013358204,"MEAN_MOTION_DOT":6.344e-5,"MEAN_MOTION_DDOT":0},{"OBJECT_NAME":"COSMOS 2251 DEB","OBJECT_ID":"1993-036BDL","EPOCH":"2026-03-12T13:24:00.823104","MEAN_MOTION":14.27559028,"ECCENTRICITY":0.0074965,"INCLINATION":74.0464,"RA_OF_ASC_NODE":30.2219,"ARG_OF_PERICENTER":58.8546,"MEAN_ANOMALY":301.9926,"EPHEMERIS_TYPE":0,"CLASSIFICATION_TYPE":"U","NORAD_CAT_ID":36550,"ELEMENT_SET_NO":999,"REV_AT_EPOCH":85877,"BSTAR":0.00084733,"MEAN_MOTION_DOT":2.123e-5,"MEAN_MOTION_DDOT":0},{"OBJECT_NAME":"COSMOS 2251 DEB","OBJECT_ID":"1993-036BDM","EPOCH":"2026-03-14T17:15:56.663712","MEAN_MOTION":15.07541582,"ECCENTRICITY":0.00397928,"INCLINATION":73.8841,"RA_OF_ASC_NODE":184.661,"ARG_OF_PERICENTER":111.751,"MEAN_ANOMALY":248.7923,"EPHEMERIS_TYPE":0,"CLASSIFICATION_TYPE":"U","NORAD_CAT_ID":36551,"ELEMENT_SET_NO":999,"REV_AT_EPOCH":68315,"BSTAR":0.0028938761,"MEAN_MOTION_DOT":0.00045027,"MEAN_MOTION_DDOT":0},{"OBJECT_NAME":"COSMOS 2251 DEB","OBJECT_ID":"1993-036BDT","EPOCH":"2026-03-13T22:13:32.317536","MEAN_MOTION":14.82578647,"ECCENTRICITY":0.00192794,"INCLINATION":73.9795,"RA_OF_ASC_NODE":305.8766,"ARG_OF_PERICENTER":82.8806,"MEAN_ANOMALY":277.4563,"EPHEMERIS_TYPE":0,"CLASSIFICATION_TYPE":"U","NORAD_CAT_ID":36557,"ELEMENT_SET_NO":999,"REV_AT_EPOCH":35246,"BSTAR":0.0032282003,"MEAN_MOTION_DOT":0.00026125,"MEAN_MOTION_DDOT":0},{"OBJECT_NAME":"COSMOS 2251 DEB","OBJECT_ID":"1993-036BDU","EPOCH":"2026-03-08T11:28:22.540224","MEAN_MOTION":14.5609106,"ECCENTRICITY":0.00105057,"INCLINATION":74.0456,"RA_OF_ASC_NODE":352.1192,"ARG_OF_PERICENTER":58.4645,"MEAN_ANOMALY":301.7543,"EPHEMERIS_TYPE":0,"CLASSIFICATION_TYPE":"U","NORAD_CAT_ID":36558,"ELEMENT_SET_NO":999,"REV_AT_EPOCH":86516,"BSTAR":0.0011367486,"MEAN_MOTION_DOT":4.99e-5,"MEAN_MOTION_DDOT":0},{"OBJECT_NAME":"COSMOS 2251 DEB","OBJECT_ID":"1993-036BDV","EPOCH":"2026-03-12T09:27:54.729216","MEAN_MOTION":13.96728025,"ECCENTRICITY":0.0259955,"INCLINATION":74.1267,"RA_OF_ASC_NODE":216.3701,"ARG_OF_PERICENTER":228.1736,"MEAN_ANOMALY":129.694,"EPHEMERIS_TYPE":0,"CLASSIFICATION_TYPE":"U","NORAD_CAT_ID":36559,"ELEMENT_SET_NO":999,"REV_AT_EPOCH":82345,"BSTAR":0.0053989,"MEAN_MOTION_DOT":9.955e-5,"MEAN_MOTION_DDOT":0}]
