COSMOS 2251 DEB         
1 36437U 93036BAL 26063.73519232  .00015302  00000+0  24019-2 0  9991
2 36437  73.9390 233.6946 0020608  80.4154 279.9345 14.72491053672579
COSMOS 2251 DEB         
1 36439U 93036BAN 26069.18593137  .00001330  00000+0  12558-2 0  9995
2 36439  73.9666 257.1058 0425166 212.0904 145.3671 13.48116918597914
COSMOS 2251 DEB         
1 36441U 93036BAQ 26073.95841360  .00011646  00000+0  64972-3 0  9991
2 36441  73.8329 157.6768 0107421 238.4457 120.6210 15.08741728883554
COSMOS 2251 DEB         
1 36451U 93036BBA 26070.62886256  .00001784  00000+0  72994-3 0  9991
2 36451  73.9529 175.6158 0185020 339.5520  19.8280 14.19125676854863
COSMOS 2251 DEB         
1 36453U 93036BBC 26072.17502350  .00003133  00000+0  73408-3 0  9996
2 36453  73.9264 340.5582 0071557 224.1893 287.3776 14.53433310857811
COSMOS 2251 DEB         
1 36459U 93036BBJ 26057.13961792  .00003257  00000+0  12580-2 0  9990
2 36459  74.0464 223.5036 0115154 301.5673  57.4272 14.26981616 89577
COSMOS 2251 DEB         
1 36470U 93036BBV 26074.23718422  .00102193  00000+0  45366-2 0  9990
2 36470  73.8321  60.1961 0026426 239.4600 120.3989 15.20747405674939
COSMOS 2251 DEB         
1 36528U 93036BCN 26047.60264214  .00001435  00000+0  53556-3 0  9998
2 36528  74.0163  25.1656 0082039  57.9736 302.9350 14.30929428653694
COSMOS 2251 DEB         
1 36533U 93036BCT 26074.29872526  .00001286  00000+0  33355-3 0  9999
2 36533  74.0106 300.7529 0047147  67.1718 293.4411 14.50160963858267
COSMOS 2251 DEB         
1 36539U 93036BCZ 26074.19696202  .00003269  00000+0  68386-3 0  9994
2 36539  74.0208 238.7042 0027219 355.8168   4.2765 14.59983799852960
COSMOS 2251 DEB         
1 36540U 93036BDA 26072.80083026  .00006344  00000+0  13358-2 0  9991
2 36540  74.0306   6.9327 0011643  56.0867 304.1404 14.59647733873388
COSMOS 2251 DEB         
1 36550U 93036BDL 26071.55834286  .00002123  00000+0  84733-3 0  9992
2 36550  74.0464  30.2219 0074965  58.8546 301.9926 14.27559028858778
COSMOS 2251 DEB         
1 36551U 93036BDM 26073.71940583  .00045027  00000+0  28939-2 0  9996
2 36551  73.8841 184.6610 0039792 111.7510 248.7923 15.07541582683151
COSMOS 2251 DEB         
1 36557U 93036BDT 26072.92606849  .00026125  00000+0  32282-2 0  9992
2 36557  73.9795 305.8766 0019279  82.8806 277.4563 14.82578647352469
COSMOS 2251 DEB         
1 36558U 93036BDU 26067.47803866  .00004990  00000+0  11367-2 0  9992
2 36558  74.0456 352.1192 0010505  58.4645 301.7543 14.56091060865162
COSMOS 2251 DEB         
1 36559U 93036BDV 26071.39438344  .00009955  00000+0  53989-2 0  9996
2 36559  74.1267 216.3701 0259955 228.1736 129.6940 13.96728025823457
